NORAD_CAT_ID,OBJECT_NAME,OBJECT_TYPE,EPOCH,MEAN_MOTION,ECCENTRICITY,INCLINATION,RA_OF_ASC_NODE,ARG_OF_PERICENTER,MEAN_ANOMALY,BSTAR,MEAN_MOTION_DOT,MEAN_MOTION_DDOT,TLE_LINE0,TLE_LINE1,TLE_LINE2,SEMIMAJOR_AXIS,PERIOD,APOGEE,PERIGEE,DECAYED
54188.0,STARLINK-5238,PAYLOAD,2024-04-13 08:30:28,15.08834348,0.0001441,53.2183,235.7604,71.7299,288.385,0.00012456,1.695e-05,0.0,0 STARLINK-5238,1 54188U 22141AH  24104.35449932  .00001695  00000-0  12456-3 0  9998,2 54188  53.2183 235.7604 0001441  71.7299 288.3850 15.08834348 81256,6917.898,95.438,540.76,538.766,0.0
54188.0,STARLINK-5238,PAYLOAD,2024-04-13 14:52:01,15.08838776,0.0001669,53.2178,234.5711,54.1954,305.9193,0.0001267,1.729e-05,0.0,0 STARLINK-5238,1 54188U 22141AH  24104.61945892  .00001729  00000-0  12670-3 0  9999,2 54188  53.2178 234.5711 0001669  54.1954 305.9193 15.08838776 81065,6917.884,95.438,540.904,538.595,0.0
54188.0,STARLINK-5238,PAYLOAD,2024-04-14 08:21:15,15.08844193,0.0001412,53.218,231.3002,79.7379,280.3772,0.0001302,1.785e-05,0.0,0 STARLINK-5238,1 54188U 22141AH  24105.34809528  .00001785  00000-0  13020-3 0  9997,2 54188  53.2180 231.3002 0001412  79.7379 280.3772 15.08844193 81403,6917.868,95.437,540.709,538.756,0.0
54188.0,STARLINK-5238,PAYLOAD,2024-04-14 14:42:47,15.08849202,0.0001699,53.218,230.1125,59.6936,300.4224,0.00017061,2.429e-05,0.0,0 STARLINK-5238,1 54188U 22141AH  24105.61305297  .00002429  00000-0  17061-3 0  9996,2 54188  53.2180 230.1125 0001699  59.6936 300.4224 15.08849202 81210,6917.852,95.437,540.893,538.542,0.0
54188.0,STARLINK-5238,PAYLOAD,2024-04-15 12:58:11,15.08858407,0.0001509,53.2178,225.9514,60.1592,299.955,-0.00044319,-7.338e-05,0.0,0 STARLINK-5238,1 54188U 22141AH  24106.54040923 -.00007338  00000-0 -44319-3 0  9993,2 54188  53.2178 225.9514 0001509  60.1592 299.9550 15.08858407 81587,6917.824,95.436,540.733,538.645,0.0
54188.0,STARLINK-5238,PAYLOAD,2024-04-15 14:33:34,15.08845581,0.0001453,53.2174,225.6501,81.3288,278.7869,9.1014e-05,1.161e-05,0.0,0 STARLINK-5238,1 54188U 22141AH  24106.60665456  .00001161  00000-0  91014-4 0  9995,2 54188  53.2174 225.6501 0001453  81.3288 278.7869 15.08845581 81364,6917.863,95.437,540.733,538.723,0.0
54188.0,STARLINK-5238,PAYLOAD,2024-04-16 14:24:21,15.08855405,0.0001301,53.2162,221.1916,85.07,275.0441,0.00020356,2.955e-05,0.0,0 STARLINK-5238,1 54188U 22141AH  24107.60024885  .00002955  00000-0  20356-3 0  9993,2 54188  53.2162 221.1916 0001301  85.0700 275.0441 15.08855405 81513,6917.833,95.437,540.598,538.798,0.0
54188.0,STARLINK-5238,PAYLOAD,2024-04-17 12:39:45,15.0884588,0.0001642,53.2166,217.0264,93.4114,266.7066,0.00015285,2.146e-05,0.0,0 STARLINK-5238,1 54188U 22141AH  24108.52761029  .00002146  00000-0  15285-3 0  9990,2 54188  53.2166 217.0264 0001642  93.4114 266.7066 15.08845880 81883,6917.862,95.437,540.863,538.592,0.0
54188.0,STARLINK-5238,PAYLOAD,2024-04-18 12:30:33,15.08831414,0.0001485,53.2163,212.5652,101.352,258.7639,-0.0001744,-3.062e-05,0.0,0 STARLINK-5238,1 54188U 22141AH  24109.52122047 -.00003062  00000-0 -17440-3 0  9997,2 54188  53.2163 212.5652 0001485 101.3520 258.7639 15.08831414 82039,6917.907,95.438,540.799,538.744,0.0
54188.0,STARLINK-5238,PAYLOAD,2024-04-19 12:21:21,15.08838031,0.0003013,53.2162,208.1055,30.12,329.9965,0.00017298,2.465e-05,0.0,0 STARLINK-5238,1 54188U 22141AH  24110.51482727  .00002465  00000-0  17298-3 0  9997,2 54188  53.2162 208.1055 0003013  30.1200 329.9965 15.08838031 82180,6917.886,95.438,541.836,537.667,0.0
54188.0,STARLINK-5238,PAYLOAD,2024-04-19 13:56:43,15.08858942,0.0001414,53.2163,207.8081,92.3236,267.7918,0.00042246,6.445e-05,0.0,0 STARLINK-5238,1 54188U 22141AH  24110.58105376  .00006445  00000-0  42246-3 0  9999,2 54188  53.2163 207.8081 0001414  92.3236 267.7918 15.08858942 81963,6917.822,95.436,540.666,538.709,0.0
54188.0,STARLINK-5238,PAYLOAD,2024-04-20 12:12:08,15.08802682,0.0001291,53.2167,203.6385,98.9018,261.212,-0.00075478,-0.00012268,0.0,0 STARLINK-5238,1 54188U 22141AH  24111.50842759 -.00012268  00000-0 -75478-3 0  9990,2 54188  53.2167 203.6385 0001291  98.9018 261.2120 15.08802682 82337,6917.994,95.44,540.753,538.966,0.0
54188.0,STARLINK-5238,PAYLOAD,2024-04-20 13:47:31,15.08798999,0.0001426,53.2172,203.3434,87.2548,272.8608,-0.00078509,-0.00012747,0.0,0 STARLINK-5238,1 54188U 22141AH  24111.57467129 -.00012747  00000-0 -78509-3 0  9991,2 54188  53.2172 203.3434 0001426  87.2548 272.8608 15.08798999 82114,6918.006,95.44,540.857,538.884,0.0
54188.0,STARLINK-5238,PAYLOAD,2024-04-21 12:02:55,15.08844445,0.0001668,53.2172,199.1841,100.2247,259.8933,0.00022753,3.335e-05,0.0,0 STARLINK-5238,1 54188U 22141AH  24112.50203328  .00003335  00000-0  22753-3 0  9995,2 54188  53.2172 199.1841 0001668 100.2247 259.8933 15.08844445 82257,6917.867,95.437,540.886,538.578,0.0
54188.0,STARLINK-5238,PAYLOAD,2024-04-22 10:18:20,15.0884467,0.0001995,53.2177,195.0217,100.0827,260.039,0.00069651,0.00010816,0.0,0 STARLINK-5238,1 54188U 22141AH  24113.42940176  .00010816  00000-0  69651-3 0  9996,2 54188  53.2177 195.0217 0001995 100.0827 260.0390 15.08844670 82621,6917.866,95.437,541.111,538.351,0.0
54188.0,STARLINK-5238,PAYLOAD,2024-04-22 11:53:43,15.08845901,0.0001921,53.2171,194.7256,86.3252,273.796,0.0006631,0.00010283,0.0,0 STARLINK-5238,1 54188U 22141AH  24113.49564219  .00010283  00000-0  66310-3 0  9990,2 54188  53.2171 194.7256 0001921  86.3252 273.7960 15.08845901 82409,6917.862,95.437,541.056,538.398,0.0
54188.0,STARLINK-5238,PAYLOAD,2024-04-23 11:44:29,15.08855689,0.0001847,53.2169,190.2626,106.7366,253.3829,0.0002006,2.907e-05,0.0,0 STARLINK-5238,1 54188U 22141AH  24114.48922904  .00002907  00000-0  20060-3 0  9995,2 54188  53.2169 190.2626 0001847 106.7366 253.3829 15.08855689 82781,6917.832,95.437,540.975,538.42,0.0
54188.0,STARLINK-5238,PAYLOAD,2024-04-24 05:13:43,15.08847803,0.00017,53.2173,186.9939,99.0238,261.0947,3.4474e-05,2.61e-06,0.0,0 STARLINK-5238,1 54188U 22141AH  24115.21786930  .00000261  00000-0  34474-4 0  9990,2 54188  53.2173 186.9939 0001700  99.0238 261.0947 15.08847803 82893,6917.857,95.437,540.898,538.546,0.0
54188.0,STARLINK-5238,PAYLOAD,2024-04-24 11:35:16,15.0885566,0.0001756,53.2172,185.8062,97.4345,262.6846,0.00017752,2.539e-05,0.0,0 STARLINK-5238,1 54188U 22141AH  24115.48282482  .00002539  00000-0  17752-3 0  9991,2 54188  53.2172 185.8062 0001756  97.4345 262.6846 15.08855660 82704,6917.833,95.437,540.912,538.483,0.0
54188.0,STARLINK-5238,PAYLOAD,2024-04-25 05:04:31,15.08836846,0.0001804,53.2179,182.5333,113.5557,246.5624,-6.2355e-05,-1.28e-05,0.0,0 STARLINK-5238,1 54188U 22141AH  24116.21147007 -.00001280  00000-0 -62355-4 0  9990,2 54188  53.2179 182.5333 0001804 113.5557 246.5624 15.08836846 83043,6917.89,95.438,541.003,538.507,0.0
54188.0,STARLINK-5238,PAYLOAD,2024-04-25 09:50:40,15.08842126,0.0001702,53.2168,181.6389,112.0391,248.0782,-8.0059e-05,-1.562e-05,0.0,0 STARLINK-5238,1 54188U 22141AH  24116.41018772 -.00001562  00000-0 -80059-4 0  9992,2 54188  53.2168 181.6389 0001702 112.0391 248.0782 15.08842126 82846,6917.874,95.437,540.916,538.561,0.0
54188.0,STARLINK-5238,PAYLOAD,2024-04-26 11:16:50,15.08846889,0.0001806,53.2176,176.8867,117.039,243.0786,9.4845e-05,1.222e-05,0.0,0 STARLINK-5238,1 54188U 22141AH  24117.47002682  .00001222  00000-0  94845-4 0  9991,2 54188  53.2176 176.8867 0001806 117.0390 243.0786 15.08846889 83234,6917.859,95.437,540.974,538.475,0.0
54188.0,STARLINK-5238,PAYLOAD,2024-04-27 12:43:00,15.08854067,0.0001535,53.2135,172.126,90.1862,269.9306,0.00033288,5.016e-05,0.0,0 STARLINK-5238,1 54188U 22141AH  24118.52986302  .00005016  00000-0  33288-3 0  9996,2 54188  53.2135 172.1260 0001535  90.1862 269.9306 15.08854067 83398,6917.837,95.437,540.764,538.641,0.0
54188.0,STARLINK-5238,PAYLOAD,2024-04-27 20:39:56,15.08832234,0.0002161,53.2156,170.6376,81.8548,278.269,-0.00012405,-2.262e-05,0.0,0 STARLINK-5238,1 54188U 22141AH  24118.86107350 -.00002262  00000-0 -12405-3 0  9991,2 54188  53.2156 170.6376 0002161  81.8548 278.2690 15.08832234 83443,6917.904,95.438,541.264,538.274,0.0
54188.0,STARLINK-5238,PAYLOAD,2024-04-28 12:33:48,15.08826756,0.0001558,53.2157,167.6642,85.3166,274.8004,-0.00017299,-3.039e-05,0.0,0 STARLINK-5238,1 54188U 22141AH  24119.52348045 -.00003039  00000-0 -17299-3 0  9992,2 54188  53.2157 167.6642 0001558  85.3166 274.8004 15.08826756 83319,6917.921,95.438,540.864,538.708,0.0
54188.0,STARLINK-5238,PAYLOAD,2024-04-28 20:30:44,15.08831719,0.0001447,53.2153,166.1786,86.4876,273.6281,-2.2628e-05,-6.48e-06,0.0,0 STARLINK-5238,1 54188U 22141AH  24119.85468033 -.00000648  00000-0 -22628-4 0  9994,2 54188  53.2153 166.1786 0001447  86.4876 273.6281 15.08831719 83369,6917.906,95.438,540.772,538.77,0.0
54188.0,STARLINK-5238,PAYLOAD,2024-04-29 02:52:16,15.08838095,0.0001445,53.2153,164.9873,87.3682,272.7475,-3.5085e-05,-8.46e-06,0.0,0 STARLINK-5238,1 54188U 22141AH  24120.11963897 -.00000846  00000-0 -35085-4 0  9994,2 54188  53.2153 164.9873 0001445  87.3682 272.7475 15.08838095 83634,6917.886,95.438,540.751,538.752,0.0
54188.0,STARLINK-5238,PAYLOAD,2024-04-29 09:13:49,15.08839954,0.0001549,53.2146,163.7981,81.2641,278.8526,0.00021148,3.079e-05,0.0,0 STARLINK-5238,1 54188U 22141AH  24120.38460006  .00003079  00000-0  21148-3 0  9990,2 54188  53.2146 163.7981 0001549  81.2641 278.8526 15.08839954 83444,6917.881,95.438,540.817,538.674,0.0
54188.0,STARLINK-5238,PAYLOAD,2024-04-29 20:21:31,15.08846073,0.0001519,53.2148,161.7169,78.6989,281.4174,0.00036775,5.571e-05,0.0,0 STARLINK-5238,1 54188U 22141AH  24120.84827973  .00005571  00000-0  36775-3 0  9992,2 54188  53.2148 161.7169 0001519  78.6989 281.4174 15.08846073 83511,6917.862,95.437,540.778,538.676,0.0
54188.0,STARLINK-5238,PAYLOAD,2024-04-30 09:04:36,15.08858688,0.000153,53.2147,159.3377,80.7715,279.345,0.00059588,9.213e-05,0.0,0 STARLINK-5238,1 54188U 22141AH  24121.37819674  .00009213  00000-0  59588-3 0  9994,2 54188  53.2147 159.3377 0001530  80.7715 279.3450 15.08858688 83820,6917.823,95.436,540.747,538.63,0.0
